[{"OBJECT_NAME":"TRANSPORTER-15 OBJECT H","OBJECT_ID":"2025-276H","EPOCH":"2026-03-09T17:32:53.221056","MEAN_MOTION":15.1998776,"ECCENTRICITY":0.00060412,"INCLINATION":97.4225,"RA_OF_ASC_NODE":143.9657,"ARG_OF_PERICENTER":14.2077,"MEAN_ANOMALY":345.9327,"EPHEMERIS_TYPE":0,"CLASSIFICATION_TYPE":"U","NORAD_CAT_ID":66673,"ELEMENT_SET_NO":999,"REV_AT_EPOCH":1532,"BSTAR":0.00046258032,"MEAN_MOTION_DOT":9.902e-5,"MEAN_MOTION_DDOT":0},{"OBJECT_NAME":"NUSAT-51 (YVONNE BRILL)","OBJECT_ID":"2025-276CC","EPOCH":"2026-03-09T17:32:05.675136","MEAN_MOTION":15.18982762,"ECCENTRICITY":0.00029597,"INCLINATION":97.4274,"RA_OF_ASC_NODE":144.0362,"ARG_OF_PERICENTER":11.654,"MEAN_ANOMALY":348.4762,"EPHEMERIS_TYPE":0,"CLASSIFICATION_TYPE":"U","NORAD_CAT_ID":66740,"ELEMENT_SET_NO":999,"REV_AT_EPOCH":1532,"BSTAR":0.00039155865,"MEAN_MOTION_DOT":8.126e-5,"MEAN_MOTION_DDOT":0}]
