TRANSPORTER-15 OBJECT H 
1 66673U 25276H   26068.73117153  .00009902  00000+0  46258-3 0  9997
2 66673  97.4225 143.9657 0006041  14.2077 345.9327 15.19987760 15323
NUSAT-51 (YVONNE BRILL) 
1 66740U 25276CC  26068.73062123  .00008126  00000+0  39156-3 0  9994
2 66740  97.4274 144.0362 0002960  11.6540 348.4762 15.18982762 15326
